{
  "norad_id": 65466,
  "name": "STARLINK-35027",
  "history": [
    {
      "epoch": "2026-03-28T15:17:46.735008Z",
      "apogee_km": 476.18862158894353,
      "perigee_km": 474.2258238035647,
      "latitude_deg": 2.1465770341685296e-05,
      "longitude_deg": 114.74525362291348,
      "height_km": 475.7370921832808,
      "semi_major_axis_km": 6853.344222696254,
      "eccentricity": 0.0001432,
      "inclination_deg": 53.1593,
      "raan_deg": 170.2449,
      "arg_perigee_deg": 67.9737,
      "mean_anomaly_deg": 292.1416,
      "mean_motion_rev_day": 15.30202628
    }
  ]
}